IRIDIUM 159             
1 43578U 18061K   24012.58789819  .00000168  00000+0  52765-4 0  9990
2 43578  86.3943  67.2425 0002237  95.2218 264.9233 14.34217847286308
IRIDIUM 180             
1 43922U 19002A   24012.51762567  .00000423  00000+0  14383-3 0  9990
2 43922  86.3972   4.1467 0002175  90.9237 269.2208 14.34219439261901
IRIDIUM 176             
1 43923U 19002B   24012.52034940  .00001781  00000+0  27848-3 0  9997
2 43923  86.6102   4.1759 0002502  87.8204 272.3300 14.72255699268799
IRIDIUM 168             
1 43924U 19002C   24012.51128835  .00000043  00000+0  83419-5 0  9992
2 43924  86.3975   4.2016 0002221  90.3452 269.7998 14.34217976261884
IRIDIUM 173             
1 43925U 19002D   24012.49860052  .00000073  00000+0  19137-4 0  9992
2 43925  86.3973   4.1323 0002258  88.0473 272.0981 14.34218792261864
IRIDIUM 169             
1 43926U 19002E   24012.55525156  .00000551  00000+0  17360-3 0  9999
2 43926  86.4209  35.7140 0004138  55.2297 304.9290 14.38605813262759
IRIDIUM 172             
1 43927U 19002F   24012.42248774  .00000479  00000+0  16405-3 0  9992
2 43927  86.3973   4.1694 0002132  90.3484 269.7956 14.34222813261860
IRIDIUM 175             
1 43928U 19002G   24012.44634373  .00001864  00000+0  29164-3 0  9994
2 43928  86.1522 346.2179 0002430  84.9959 275.1535 14.72258528268779
